{
  "updated": "2026-07-09T23:07:05.768Z",
  "capsules": {
    "66664": {
      "name": "SOYUZ-MS 28",
      "family": "soyuz",
      "phase": "docked",
      "stationKey": "iss",
      "since": "2026-07-03T10:34:14.509Z",
      "distanceKm": 0,
      "altitudeKm": 427.4,
      "inclinationDeg": 51.63,
      "l1": "1 66664U 25275A   26190.12129410  .00005585  00000+0  10961-3 0  9999",
      "l2": "2 66664  51.6303 191.5347 0006670 273.7232  86.2993 15.48953098645120"
    },
    "67796": {
      "name": "CREW DRAGON 12",
      "family": "dragon",
      "phase": "docked",
      "stationKey": "iss",
      "since": "2026-07-03T10:34:14.509Z",
      "distanceKm": 0,
      "altitudeKm": 427.4,
      "inclinationDeg": 51.63,
      "l1": "1 67796U 26031A   26190.12129410  .00005585  00000+0  10961-3 0  9997",
      "l2": "2 67796  51.6303 191.5347 0006670 273.7232  86.2993 15.48953098627903"
    },
    "69180": {
      "name": "SHENZHOU-23 (SZ-23)",
      "family": "shenzhou",
      "phase": "docked",
      "stationKey": "css",
      "since": "2026-07-03T10:34:14.509Z",
      "distanceKm": 0,
      "altitudeKm": 402.8,
      "inclinationDeg": 41.469,
      "l1": "1 69180U 26113A   26190.31778095  .00001103  00000+0  18566-4 0  9999",
      "l2": "2 69180  41.4688 187.4551 0002653 281.7622  78.2918 15.58017197295502"
    }
  },
  "events": []
}
